CCSDS_OMM_VERS,COMMENT,CREATION_DATE,ORIGINATOR,OBJECT_NAME,OBJECT_ID,CENTER_NAME,REF_FRAME,TIME_SYSTEM,MEAN_ELEMENT_THEORY,EPOCH,MEAN_MOTION,ECCENTRICITY,INCLINATION,RA_OF_ASC_NODE,ARG_OF_PERICENTER,MEAN_ANOMALY,EPHEMERIS_TYPE,CLASSIFICATION_TYPE,NORAD_CAT_ID,ELEMENT_SET_NO,REV_AT_EPOCH,BSTAR,MEAN_MOTION_DOT,MEAN_MOTION_DDOT,SEMIMAJOR_AXIS,PERIOD,APOAPSIS,PERIAPSIS,OBJECT_TYPE,RCS_SIZE,COUNTRY_CODE,LAUNCH_DATE,SITE,DECAY_DATE,FILE,GP_ID,TLE_LINE0,TLE_LINE1,TLE_LINE2
"2.0","GENERATED VIA SPACE-TRACK.ORG API","2020-07-01T01:21:29","18 SPCS","COSMOS 1732","1986-015A","EARTH","TEME","UTC","SGP4","2020-06-30T21:18:46.752768","12.40984844","0.00268790","73.6116","343.1345","302.4535","57.3910","0","U","16593","999","55770","0.00013826000000","0.00000001","0.0000000000000","7880.568","116.036","1523.615","1481.250","PAYLOAD","LARGE","CIS","1986-02-11","PKMTR","","2776511","156681357","0 COSMOS 1732","1 16593U 86015A   20182.88804112 +.00000001 +00000-0 +13826-3 0  9993","2 16593 073.6116 343.1345 0026879 302.4535 057.3910 12.40984844557700"
"2.0","GENERATED VIA SPACE-TRACK.ORG API","2020-06-30T22:36:09","18 SPCS","COSMOS 2498","2014-028C","EARTH","TEME","UTC","SGP4","2020-06-30T18:16:44.556384","12.42887121","0.00207010","82.4460","32.7430","133.4889","226.7916","0","U","39763","999","27709","0.00017733000000","0.00000035","0.0000000000000","7872.525","115.859","1510.686","1478.093","PAYLOAD","LARGE","CIS","2014-05-23","PKMTR","","2776428","156676912","0 COSMOS 2498","1 39763U 14028C   20182.76162681  .00000035  00000-0  17733-3 0  9995","2 39763  82.4460  32.7430 0020701 133.4889 226.7916 12.42887121277093"
"2.0","GENERATED VIA SPACE-TRACK.ORG API","2020-06-30T18:09:02","18 SPCS","COSMOS 1732","1986-015A","EARTH","TEME","UTC","SGP4","2020-06-30T13:34:29.001216","12.40984832","0.00268720","73.6116","343.5666","302.8946","56.9513","0","U","16593","999","55766","0.00011501000000","-0.00000002","0.0000000000000","7880.568","116.036","1523.609","1481.256","PAYLOAD","LARGE","CIS","1986-02-11","PKMTR","","2776321","156658990","0 COSMOS 1732","1 16593U 86015A   20182.56561344 -.00000002 +00000-0 +11501-3 0  9995","2 16593 073.6116 343.5666 0026872 302.8946 056.9513 12.40984832557669"
"2.0","GENERATED VIA SPACE-TRACK.ORG API","2020-06-30T18:09:02","18 SPCS","COSMOS 2498","2014-028C","EARTH","TEME","UTC","SGP4","2020-06-30T12:28:59.702016","12.42887109","0.00207010","82.4460","32.8942","134.0147","226.2644","0","U","39763","999","27706","0.00017733000000","0.00000035","0.0000000000000","7872.525","115.859","1510.686","1478.093","PAYLOAD","LARGE","CIS","2014-05-23","PKMTR","","2776321","156670660","0 COSMOS 2498","1 39763U 14028C   20182.52013544 +.00000035 +00000-0 +17733-3 0  9992","2 39763 082.4460 032.8942 0020701 134.0147 226.2644 12.42887109277062"
"2.0","GENERATED VIA SPACE-TRACK.ORG API","2020-06-29T22:36:10","18 SPCS","COSMOS 2498","2014-028C","EARTH","TEME","UTC","SGP4","2020-06-29T17:09:50.147136","12.42887215","0.00207210","82.4462","33.3985","135.7154","224.5579","0","U","39763","999","27696","0.00027278000000","0.00000048","0.0000000000000","7872.524","115.859","1510.702","1478.076","PAYLOAD","LARGE","CIS","2014-05-23","PKMTR","","2775715","156640538","0 COSMOS 2498","1 39763U 14028C   20181.71516374  .00000048  00000-0  27278-3 0  9990","2 39763  82.4462  33.3985 0020721 135.7154 224.5579 12.42887215276969"
"2.0","GENERATED VIA SPACE-TRACK.ORG API","2020-06-29T16:22:39","18 SPCS","COSMOS 1732","1986-015A","EARTH","TEME","UTC","SGP4","2020-06-29T04:41:13.572672","12.40984772","0.00268550","73.6115","345.4032","304.8407","55.0112","0","U","16593","999","55749","0.00013356000000","0.00000001","0.0000000000000","7880.568","116.036","1523.596","1481.270","PAYLOAD","LARGE","CIS","1986-02-11","PKMTR","","2775515","156620717","0 COSMOS 1732","1 16593U 86015A   20181.19529598 +.00000001 +00000-0 +13356-3 0  9996","2 16593 073.6115 345.4032 0026855 304.8407 055.0112 12.40984772557490"
"2.0","GENERATED VIA SPACE-TRACK.ORG API","2020-06-29T16:22:39","18 SPCS","COSMOS 2498","2014-028C","EARTH","TEME","UTC","SGP4","2020-06-29T03:38:25.477728","12.42887312","0.00206920","82.4463","33.7514","136.9269","223.3433","0","U","39763","999","27689","0.00035582000000","0.00000059","0.0000000000000","7872.524","115.859","1510.679","1478.099","PAYLOAD","LARGE","CIS","2014-05-23","PKMTR","","2775515","156632948","0 COSMOS 2498","1 39763U 14028C   20181.15168377 +.00000059 +00000-0 +35582-3 0  9993","2 39763 082.4463 033.7514 0020692 136.9269 223.3433 12.42887312276895"
"2.0","GENERATED VIA SPACE-TRACK.ORG API","2020-06-29T01:24:19","18 SPCS","COSMOS 1732","1986-015A","EARTH","TEME","UTC","SGP4","2020-06-28T20:56:55.822848","12.40984772","0.00268510","73.6115","345.8353","305.2882","54.5651","0","U","16593","999","55745","0.00014101000000","0.00000002","0.0000000000000","7880.568","116.036","1523.593","1481.273","PAYLOAD","LARGE","CIS","1986-02-11","PKMTR","","2775127","156591796","0 COSMOS 1732","1 16593U 86015A   20180.87286832 +.00000002 +00000-0 +14101-3 0  9991","2 16593 073.6115 345.8353 0026851 305.2882 054.5651 12.40984772557456"
"2.0","GENERATED VIA SPACE-TRACK.ORG API","2020-06-29T01:24:19","18 SPCS","COSMOS 2498","2014-028C","EARTH","TEME","UTC","SGP4","2020-06-28T19:54:45.633312","12.42887315","0.00206880","82.4464","33.9530","137.6120","222.6542","0","U","39763","999","27685","0.00038255000000","0.00000063","0.0000000000000","7872.524","115.859","1510.675","1478.102","PAYLOAD","LARGE","CIS","2014-05-23","PKMTR","","2775127","156602609","0 COSMOS 2498","1 39763U 14028C   20180.82969483 +.00000063 +00000-0 +38255-3 0  9998","2 39763 082.4464 033.9530 0020688 137.6120 222.6542 12.42887315276857"
"2.0","GENERATED VIA SPACE-TRACK.ORG API","2020-06-28T22:26:09","18 SPCS","COSMOS 1732","1986-015A","EARTH","TEME","UTC","SGP4","2020-06-28T19:00:51.385824","12.40984764","0.00268510","73.6115","345.9433","305.3994","54.4541","0","U","16593","999","55768","0.00013621000000","0.00000001","0.0000000000000","7880.568","116.036","1523.593","1481.273","PAYLOAD","LARGE","CIS","1986-02-11","PKMTR","","2774962","156584006","0 COSMOS 1732","1 16593U 86015A   20180.79226141  .00000001  00000-0  13621-3 0  9994","2 16593  73.6115 345.9433 0026851 305.3994  54.4541 12.40984764557684"
"2.0","GENERATED VIA SPACE-TRACK.ORG API","2020-06-28T14:46:09","18 SPCS","COSMOS 2498","2014-028C","EARTH","TEME","UTC","SGP4","2020-06-28T14:07:00.787584","12.42887464","0.00206690","82.4465","34.1042","138.1233","222.1435","0","U","39763","999","27682","0.00046289000000","0.00000074","0.0000000000000","7872.523","115.859","1510.660","1478.116","PAYLOAD","LARGE","CIS","2014-05-23","PKMTR","","2774796","156538777","0 COSMOS 2498","1 39763U 14028C   20180.58820356  .00000074  00000-0  46289-3 0  9994","2 39763  82.4465  34.1042 0020669 138.1233 222.1435 12.42887464276827"
"2.0","GENERATED VIA SPACE-TRACK.ORG API","2020-06-28T18:09:08","18 SPCS","COSMOS 2498","2014-028C","EARTH","TEME","UTC","SGP4","2020-06-28T02:31:31.091808","12.42887384","0.00206490","82.4464","34.4067","139.1343","221.1294","0","U","39763","999","27676","0.00044937000000","0.00000072","0.0000000000000","7872.523","115.859","1510.644","1478.132","PAYLOAD","LARGE","CIS","2014-05-23","PKMTR","","2774888","156556102","0 COSMOS 2498","1 39763U 14028C   20180.10522097 +.00000072 +00000-0 +44937-3 0  9999","2 39763 082.4464 034.4067 0020649 139.1343 221.1294 12.42887384276763"
"2.0","GENERATED VIA SPACE-TRACK.ORG API","2020-06-28T18:09:08","18 SPCS","COSMOS 1732","1986-015A","EARTH","TEME","UTC","SGP4","2020-06-27T21:44:02.574240","12.40984728","0.00268380","73.6115","347.1317","306.6419","53.2157","0","U","16593","999","55733","0.00006869000000","-0.00000008","0.0000000000000","7880.568","116.036","1523.583","1481.283","PAYLOAD","LARGE","CIS","1986-02-11","PKMTR","","2774888","156545610","0 COSMOS 1732","1 16593U 86015A   20179.90558535 -.00000008 +00000-0 +68690-4 0  9995","2 16593 073.6115 347.1317 0026838 306.6419 053.2157 12.40984728557332"
"2.0","GENERATED VIA SPACE-TRACK.ORG API","2020-06-28T03:24:51","18 SPCS","COSMOS 2498","2014-028C","EARTH","TEME","UTC","SGP4","2020-06-27T20:43:46.227072","12.42887303","0.00206230","82.4464","34.5580","139.6603","220.6006","0","U","39763","999","27673","0.00041851000000","0.00000068","0.0000000000000","7872.524","115.859","1510.624","1478.153","PAYLOAD","LARGE","CIS","2014-05-23","PKMTR","","2774488","156507705","0 COSMOS 2498","1 39763U 14028C   20179.86372948 +.00000068 +00000-0 +41851-3 0  9995","2 39763 082.4464 034.5580 0020623 139.6603 220.6006 12.42887303276733"
"2.0","GENERATED VIA SPACE-TRACK.ORG API","2020-06-28T03:24:51","18 SPCS","COSMOS 1732","1986-015A","EARTH","TEME","UTC","SGP4","2020-06-27T17:51:53.700192","12.40984700","0.00268360","73.6115","347.3478","306.8644","52.9939","0","U","16593","999","55731","0.00003013300000","-0.00000013","0.0000000000000","7880.568","116.036","1523.581","1481.285","PAYLOAD","LARGE","CIS","1986-02-11","PKMTR","","2774488","156495449","0 COSMOS 1732","1 16593U 86015A   20179.74437153 -.00000013 +00000-0 +30133-4 0  9996","2 16593 073.6115 347.3478 0026836 306.8644 052.9939 12.40984700557314"
"2.0","GENERATED VIA SPACE-TRACK.ORG API","2020-06-27T14:46:10","18 SPCS","COSMOS 2498","2014-028C","EARTH","TEME","UTC","SGP4","2020-06-27T13:00:06.431904","12.42887292","0.00206150","82.4465","34.7595","140.3484","219.9114","0","U","39763","999","27669","0.00041887000000","0.00000068","0.0000000000000","7872.524","115.859","1510.618","1478.160","PAYLOAD","LARGE","CIS","2014-05-23","PKMTR","","2774174","156464317","0 COSMOS 2498","1 39763U 14028C   20179.54174111  .00000068  00000-0  41887-3 0  9991","2 39763  82.4465  34.7595 0020615 140.3484 219.9114 12.42887292276692"
